NORAD_CAT_ID,OBJECT_NAME,OBJECT_TYPE,EPOCH,MEAN_MOTION,ECCENTRICITY,INCLINATION,RA_OF_ASC_NODE,ARG_OF_PERICENTER,MEAN_ANOMALY,BSTAR,MEAN_MOTION_DOT,MEAN_MOTION_DDOT,TLE_LINE0,TLE_LINE1,TLE_LINE2,SEMIMAJOR_AXIS,PERIOD,APOGEE,PERIGEE,DECAYED
50194.0,STARLINK-3269,PAYLOAD,2023-05-29 05:41:11,15.08845292,0.0001105,53.2169,117.6721,87.6493,272.4626,7.762e-05,9.48e-06,0.0,0 STARLINK-3269,1 50194U 21125AQ  23149.23694086  .00000948  00000-0  77620-4 0  9994,2 50194  53.2169 117.6721 0001105  87.6493 272.4626 15.08845292 83482,6917.864,95.437,540.494,538.965,0.0
50194.0,STARLINK-3269,PAYLOAD,2023-05-30 03:56:35,15.08840363,0.0001087,53.2169,113.5094,87.8262,272.2854,6.5348e-05,7.52e-06,0.0,0 STARLINK-3269,1 50194U 21125AQ  23150.16430431  .00000752  00000-0  65348-4 0  9997,2 50194  53.2169 113.5094 0001087  87.8262 272.2854 15.08840363 83097,6917.879,95.438,540.496,538.992,0.0
50194.0,STARLINK-3269,PAYLOAD,2023-05-30 21:25:51,15.08826288,0.0001082,53.2174,110.2365,99.3685,260.7429,0.00012432,1.691e-05,0.0,0 STARLINK-3269,1 50194U 21125AQ  23150.89295139  .00001691  00000-0  12432-3 0  9999,2 50194  53.2174 110.2365 0001082  99.3685 260.7429 15.08826288 83731,6917.922,95.438,540.536,539.039,0.0
50194.0,STARLINK-3269,PAYLOAD,2023-05-31 03:47:23,15.08839316,0.0001048,53.2173,109.0487,89.3152,270.796,1.9188e-05,1.8e-07,0.0,0 STARLINK-3269,1 50194U 21125AQ  23151.15790703  .00000018  00000-0  19188-4 0  9994,2 50194  53.2173 109.0487 0001048  89.3152 270.7960 15.08839316 83772,6917.882,95.438,540.472,539.022,0.0
50194.0,STARLINK-3269,PAYLOAD,2023-05-31 21:16:37,15.08839039,0.0001066,53.2172,105.778,91.0215,269.0899,3.2121e-05,2.23e-06,0.0,0 STARLINK-3269,1 50194U 21125AQ  23151.88654734  .00000223  00000-0  32121-4 0  9997,2 50194  53.2172 105.7780 0001066  91.0215 269.0899 15.08839039 83886,6917.883,95.438,540.486,539.011,0.0
50194.0,STARLINK-3269,PAYLOAD,2023-06-01 03:38:09,15.08844494,0.0001049,53.2174,104.5878,93.6142,266.497,7.9195e-05,9.73e-06,0.0,0 STARLINK-3269,1 50194U 21125AQ  23152.15150225  .00000973  00000-0  79195-4 0  9998,2 50194  53.2174 104.5878 0001049  93.6142 266.4970 15.08844494 83928,6917.867,95.437,540.457,539.006,0.0
50194.0,STARLINK-3269,PAYLOAD,2023-06-02 03:28:57,15.08840004,0.0001016,53.2174,100.1277,92.0555,268.0554,5.156e-05,5.33e-06,0.0,0 STARLINK-3269,1 50194U 21125AQ  23153.14510717  .00000533  00000-0  51560-4 0  9992,2 50194  53.2174 100.1277 0001016  92.0555 268.0554 15.08840004 83545,6917.88,95.438,540.448,539.043,0.0
50194.0,STARLINK-3269,PAYLOAD,2023-06-02 06:39:43,15.08841502,0.0001054,53.2174,99.5324,91.3638,268.7475,6.0615e-05,6.77e-06,0.0,0 STARLINK-3269,1 50194U 21125AQ  23153.27758572  .00000677  00000-0  60615-4 0  9999,2 50194  53.2174  99.5324 0001054  91.3638 268.7475 15.08841502 84099,6917.876,95.437,540.47,539.012,0.0
50194.0,STARLINK-3269,PAYLOAD,2023-06-03 03:19:45,15.08832491,0.0001013,53.2168,95.6685,103.565,256.5455,-3.9667e-05,-9.19e-06,0.0,0 STARLINK-3269,1 50194U 21125AQ  23154.13871767 -.00000919  00000-0 -39667-4 0  9991,2 50194  53.2168  95.6685 0001013 103.5650 256.5455 15.08832491 83699,6917.903,95.438,540.469,539.068,0.0
50194.0,STARLINK-3269,PAYLOAD,2023-06-03 19:13:36,15.08836451,0.0001008,53.2176,92.6938,94.2118,265.8989,-6.816e-06,-3.96e-06,0.0,0 STARLINK-3269,1 50194U 21125AQ  23154.80111736 -.00000396  00000-0 -68160-5 0  9998,2 50194  53.2176  92.6938 0001008  94.2118 265.8989 15.08836451 84321,6917.891,95.438,540.454,539.059,0.0
50194.0,STARLINK-3269,PAYLOAD,2023-06-04 01:35:08,15.08838956,0.0001037,53.2174,91.5047,97.0057,263.1053,2.0082e-05,3.2e-07,0.0,0 STARLINK-3269,1 50194U 21125AQ  23155.06607534  .00000032  00000-0  20082-4 0  9998,2 50194  53.2174  91.5047 0001037  97.0057 263.1053 15.08838956 83833,6917.884,95.438,540.466,539.031,0.0
50194.0,STARLINK-3269,PAYLOAD,2023-06-04 04:45:54,15.0884017,0.0001078,53.2172,90.9097,105.9598,254.1513,7.6653e-05,9.32e-06,0.0,0 STARLINK-3269,1 50194U 21125AQ  23155.19855276  .00000932  00000-0  76653-4 0  9994,2 50194  53.2172  90.9097 0001078 105.9598 254.1513 15.08840170 84386,6917.88,95.438,540.491,538.999,0.0
50194.0,STARLINK-3269,PAYLOAD,2023-06-04 19:04:23,15.08836712,0.0001074,53.2173,88.2333,99.9919,260.1195,0.00011463,1.537e-05,0.0,0 STARLINK-3269,1 50194U 21125AQ  23155.79471449  .00001537  00000-0  11463-3 0  9995,2 50194  53.2173  88.2333 0001074  99.9919 260.1195 15.08836712 84475,6917.89,95.438,540.498,539.012,0.0
50194.0,STARLINK-3269,PAYLOAD,2023-06-05 03:01:18,15.08843404,0.000108,53.2173,86.7465,99.4342,260.6772,0.00012865,1.76e-05,0.0,0 STARLINK-3269,1 50194U 21125AQ  23156.12591033  .00001760  00000-0  12865-3 0  9990,2 50194  53.2173  86.7465 0001080  99.4342 260.6772 15.08843404 83994,6917.87,95.437,540.482,538.988,0.0
50194.0,STARLINK-3269,PAYLOAD,2023-06-05 12:33:37,15.08838528,0.0001115,53.2174,84.9633,80.9025,279.2093,6.6931e-05,7.78e-06,0.0,0 STARLINK-3269,1 50194U 21125AQ  23156.52335643  .00000778  00000-0  66931-4 0  9999,2 50194  53.2174  84.9633 0001115  80.9025 279.2093 15.08838528 84583,6917.885,95.438,540.521,538.979,0.0
50194.0,STARLINK-3269,PAYLOAD,2023-06-05 14:09:01,15.08837525,0.0001169,53.2171,84.6659,83.5918,276.5208,5.0266e-05,5.12e-06,0.0,0 STARLINK-3269,1 50194U 21125AQ  23156.58959765  .00000512  00000-0  50266-4 0  9992,2 50194  53.2171  84.6659 0001169  83.5918 276.5208 15.08837525 84061,6917.888,95.438,540.562,538.944,0.0
50194.0,STARLINK-3269,PAYLOAD,2023-06-06 04:27:29,15.08838669,0.0001207,53.217,81.9889,72.6371,287.4753,2.6903e-05,1.4e-06,0.0,0 STARLINK-3269,1 50194U 21125AQ  23157.18575928  .00000140  00000-0  26903-4 0  9992,2 50194  53.2170  81.9889 0001207  72.6371 287.4753 15.08838669 84684,6917.884,95.438,540.584,538.914,0.0
50194.0,STARLINK-3269,PAYLOAD,2023-06-06 20:21:20,15.0884534,0.0001111,53.2175,79.0154,81.1212,278.9906,4.2111e-05,3.83e-06,0.0,0 STARLINK-3269,1 50194U 21125AQ  23157.84815367  .00000383  00000-0  42111-4 0  9997,2 50194  53.2175  79.0154 0001111  81.1212 278.9906 15.08845340 84785,6917.864,95.437,540.498,538.96,0.0
50194.0,STARLINK-3269,PAYLOAD,2023-06-07 04:18:15,15.08853332,0.0001128,53.2174,77.5287,83.2454,276.8666,0.00010375,1.364e-05,0.0,0 STARLINK-3269,1 50194U 21125AQ  23158.17934551  .00001364  00000-0  10375-3 0  9997,2 50194  53.2174  77.5287 0001128  83.2454 276.8666 15.08853332 84301,6917.84,95.437,540.485,538.924,0.0
50194.0,STARLINK-3269,PAYLOAD,2023-06-07 13:50:35,15.08839273,0.0001134,53.2172,75.7434,98.4578,261.6542,3.8915e-05,3.32e-06,0.0,0 STARLINK-3269,1 50194U 21125AQ  23158.57679478  .00000332  00000-0  38915-4 0  9990,2 50194  53.2172  75.7434 0001134  98.4578 261.6542 15.08839273 84892,6917.883,95.438,540.532,538.963,0.0
50194.0,STARLINK-3269,PAYLOAD,2023-06-07 21:47:31,15.08832504,0.0001273,53.217,74.2549,117.202,242.9101,5.1528e-05,5.32e-06,0.0,0 STARLINK-3269,1 50194U 21125AQ  23158.90799843  .00000532  00000-0  51528-4 0  9993,2 50194  53.2170  74.2549 0001273 117.2020 242.9101 15.08832504 84946,6917.903,95.438,540.649,538.888,0.0
50194.0,STARLINK-3269,PAYLOAD,2023-06-08 04:09:03,15.08842178,0.0001127,53.2177,73.068,90.9932,269.1189,6.7561e-05,7.88e-06,0.0,0 STARLINK-3269,1 50194U 21125AQ  23159.17295385  .00000788  00000-0  67561-4 0  9992,2 50194  53.2177  73.0680 0001127  90.9932 269.1189 15.08842178 84982,6917.874,95.437,540.518,538.959,0.0
50194.0,STARLINK-3269,PAYLOAD,2023-06-08 23:13:41,15.08838259,0.0001132,53.218,69.4979,101.1661,258.9459,-2.1066e-05,-6.23e-06,0.0,0 STARLINK-3269,1 50194U 21125AQ  23159.96783938 -.00000623  00000-0 -21066-4 0  9995,2 50194  53.2180  69.4979 0001132 101.1661 258.9459 15.08838259 84572,6917.886,95.438,540.534,538.968,0.0
50194.0,STARLINK-3269,PAYLOAD,2023-06-09 10:21:23,15.08841226,0.0001155,53.218,67.4153,89.5047,270.6078,-4.156e-05,-9.49e-06,0.0,0 STARLINK-3269,1 50194U 21125AQ  23160.43151833 -.00000949  00000-0 -41560-4 0  9994,2 50194  53.2180  67.4153 0001155  89.5047 270.6078 15.08841226 85179,6917.877,95.437,540.541,538.943,0.0
50194.0,STARLINK-3269,PAYLOAD,2023-06-10 03:50:37,15.08841699,0.0001134,53.2167,64.1468,101.182,258.9299,2.2298e-05,6.7e-07,0.0,0 STARLINK-3269,1 50194U 21125AQ  23161.16015726  .00000067  00000-0  22298-4 0  9991,2 50194  53.2167  64.1468 0001134 101.1820 258.9299 15.08841699 84755,6917.875,95.437,540.525,538.956,0.0
50194.0,STARLINK-3269,PAYLOAD,2023-06-10 10:12:10,15.08839432,9.51e-05,53.2167,62.9574,87.9498,272.1603,5.1255e-05,5.28e-06,0.0,0 STARLINK-3269,1 50194U 21125AQ  23161.42511861  .00000528  00000-0  51255-4 0  9998,2 50194  53.2167  62.9574 0000951  87.9498 272.1603 15.08839432 85320,6917.882,95.438,540.405,539.089,0.0
50194.0,STARLINK-3269,PAYLOAD,2023-06-11 02:06:01,15.08840173,9.56e-05,53.2182,59.9855,93.5247,266.5854,-6.1921e-06,-3.86e-06,0.0,0 STARLINK-3269,1 50194U 21125AQ  23162.08752266 -.00000386  00000-0 -61921-5 0  9993,2 50194  53.2182  59.9855 0000956  93.5247 266.5854 15.08840173 84895,6917.88,95.438,540.406,539.084,0.0
50194.0,STARLINK-3269,PAYLOAD,2023-06-11 10:02:57,15.08846987,0.0001148,53.2185,58.5013,126.3909,233.7189,-8.3044e-05,-1.609e-05,0.0,0 STARLINK-3269,1 50194U 21125AQ  23162.41871950 -.00001609  00000-0 -83044-4 0  9990,2 50194  53.2185  58.5013 0001148 126.3909 233.7189 15.08846987 85474,6917.859,95.437,540.518,538.93,0.0
50194.0,STARLINK-3269,PAYLOAD,2023-06-11 17:59:53,15.08835147,9.18e-05,53.2185,57.0123,98.5698,261.5398,4.6261e-05,4.49e-06,0.0,0 STARLINK-3269,1 50194U 21125AQ  23162.74992551  .00000449  00000-0  46261-4 0  9996,2 50194  53.2185  57.0123 0000918  98.5698 261.5398 15.08835147 85522,6917.895,95.438,540.395,539.125,0.0
50194.0,STARLINK-3269,PAYLOAD,2023-06-12 09:53:44,15.08841132,0.0001103,53.2192,54.0376,87.8496,272.2623,-1.4896e-05,-5.25e-06,0.0,0 STARLINK-3269,1 50194U 21125AQ  23163.41232386 -.00000525  00000-0 -14896-4 0  9990,2 50194  53.2192  54.0376 0001103  87.8496 272.2623 15.08841132 85094,6917.877,95.437,540.505,538.979,0.0
